STARLINK-2738           
1 48668U 21044AG  26068.78726178  .00001366  00000+0  58240-4 0  9999
2 48668  53.1579 103.5158 0001324  95.9871 264.1280 15.30207829263984
KUIPER-00222            
1 67782U 26030U   26068.67636257  .00055223  00000+0  17317-2 0  9992
2 67782  51.8817 219.7147 0012800  40.1845 320.0084 15.32445377  5087
